YAM-7                   
1 60504U 24149AN  26068.71799904  .00009009  00000+0  30984-3 0  9997
2 60504  97.3828 149.4631 0001973 296.5121  63.5918 15.30304554 86835
STARLINK-34918          
1 65331U 25189J   26068.65901299  .00038964  00000+0  13208-2 0  9991
2 65331  53.1590 206.7702 0001231  69.9895 290.1238 15.30198722 31041
